[{"OBJECT_NAME":"NUSAT-47","OBJECT_ID":"2025-276CF","EPOCH":"2026-03-09T17:45:49.486176","MEAN_MOTION":15.1906801,"ECCENTRICITY":0.00020185,"INCLINATION":97.4263,"RA_OF_ASC_NODE":144.0024,"ARG_OF_PERICENTER":39.1504,"MEAN_ANOMALY":320.9877,"EPHEMERIS_TYPE":0,"CLASSIFICATION_TYPE":"U","NORAD_CAT_ID":66743,"ELEMENT_SET_NO":999,"REV_AT_EPOCH":1532,"BSTAR":0.00039116013,"MEAN_MOTION_DOT":8.137e-5,"MEAN_MOTION_DDOT":0},{"OBJECT_NAME":"LEMUR-2-TEODOR","OBJECT_ID":"2025-276DG","EPOCH":"2026-03-09T22:32:17.371680","MEAN_MOTION":15.19870523,"ECCENTRICITY":0.00021641,"INCLINATION":97.4221,"RA_OF_ASC_NODE":144.2904,"ARG_OF_PERICENTER":115.2922,"MEAN_ANOMALY":244.8537,"EPHEMERIS_TYPE":0,"CLASSIFICATION_TYPE":"U","NORAD_CAT_ID":66768,"ELEMENT_SET_NO":999,"REV_AT_EPOCH":1536,"BSTAR":0.00038251651,"MEAN_MOTION_DOT":8.143e-5,"MEAN_MOTION_DDOT":0}]
